NORAD_CAT_ID,OBJECT_NAME,OBJECT_TYPE,EPOCH,MEAN_MOTION,ECCENTRICITY,INCLINATION,RA_OF_ASC_NODE,ARG_OF_PERICENTER,MEAN_ANOMALY,BSTAR,MEAN_MOTION_DOT,MEAN_MOTION_DDOT,TLE_LINE0,TLE_LINE1,TLE_LINE2,SEMIMAJOR_AXIS,PERIOD,APOGEE,PERIGEE,DECAYED
52332.0,STARLINK-3831,PAYLOAD,2023-10-07 13:16:44,15.0884563,0.0001136,53.2152,218.1733,97.1465,262.9656,0.0010112,0.00015844,0.0,0 STARLINK-3831,1 52332U 22045B   23280.55329130  .00015844  00000-0  10112-2 0  9990,2 52332  53.2152 218.1733 0001136  97.1465 262.9656 15.08845630 82166,6917.863,95.437,540.514,538.942,0.0
52332.0,STARLINK-3831,PAYLOAD,2023-10-08 01:59:49,15.08852898,0.0001264,53.2144,215.7945,99.4044,260.7091,0.00080663,0.00012577,0.0,0 STARLINK-3831,1 52332U 22045B   23281.08321027  .00012577  00000-0  80663-3 0  9995,2 52332  53.2144 215.7945 0001264  99.4044 260.7091 15.08852898 82247,6917.841,95.437,540.58,538.832,0.0
52332.0,STARLINK-3831,PAYLOAD,2023-10-08 05:10:35,15.0886684,0.0001471,53.2151,215.1976,108.135,251.9802,0.0012977,0.0002044,0.0,0 STARLINK-3831,1 52332U 22045B   23281.21568726  .00020440  00000-0  12977-2 0  9999,2 52332  53.2151 215.1976 0001471 108.1350 251.9802 15.08866840 82267,6917.798,95.436,540.681,538.646,0.0
52332.0,STARLINK-3831,PAYLOAD,2023-10-08 13:07:31,15.08845911,0.0001926,53.2165,213.7114,89.3469,270.7743,0.00053878,8.298e-05,0.0,0 STARLINK-3831,1 52332U 22045B   23281.54689279  .00008298  00000-0  53878-3 0  9995,2 52332  53.2165 213.7114 0001926  89.3469 270.7743 15.08845911 82311,6917.862,95.437,541.06,538.395,0.0
52332.0,STARLINK-3831,PAYLOAD,2023-10-08 19:29:03,15.08854954,0.0001999,53.2166,212.5216,90.6831,269.439,0.00088773,0.00013874,0.0,0 STARLINK-3831,1 52332U 22045B   23281.81185148  .00013874  00000-0  88773-3 0  9999,2 52332  53.2166 212.5216 0001999  90.6831 269.4390 15.08854954 82354,6917.835,95.437,541.083,538.317,0.0
52332.0,STARLINK-3831,PAYLOAD,2023-10-09 12:58:18,15.08848375,0.0001244,53.2167,209.2522,97.3347,262.7787,0.00052893,8.142e-05,0.0,0 STARLINK-3831,1 52332U 22045B   23282.54048777  .00008142  00000-0  52893-3 0  9992,2 52332  53.2167 209.2522 0001244  97.3347 262.7787 15.08848375 82465,6917.855,95.437,540.58,538.859,0.0
52332.0,STARLINK-3831,PAYLOAD,2023-10-10 01:41:23,15.0884769,0.0001771,53.2162,206.8723,111.7936,248.3245,0.00049474,7.596e-05,0.0,0 STARLINK-3831,1 52332U 22045B   23283.07040955  .00007596  00000-0  49474-3 0  9994,2 52332  53.2162 206.8723 0001771 111.7936 248.3245 15.08847690 82543,6917.857,95.437,540.947,538.497,0.0
52332.0,STARLINK-3831,PAYLOAD,2023-10-10 04:52:09,15.08855408,0.000174,53.2162,206.2769,113.0519,247.0657,0.00086126,0.00013451,0.0,0 STARLINK-3831,1 52332U 22045B   23283.20288819  .00013451  00000-0  86126-3 0  9994,2 52332  53.2162 206.2769 0001740 113.0519 247.0657 15.08855408 82566,6917.833,95.437,540.902,538.495,0.0
52332.0,STARLINK-3831,PAYLOAD,2023-10-10 23:56:48,15.08845784,0.0001569,53.2163,202.7101,120.4864,239.6283,0.0019091,0.00030231,0.0,0 STARLINK-3831,1 52332U 22045B   23283.99777909  .00030231  00000-0  19091-2 0  9994,2 52332  53.2163 202.7101 0001569 120.4864 239.6283 15.08845784 82683,6917.863,95.437,540.813,538.642,0.0
52332.0,STARLINK-3831,PAYLOAD,2023-10-11 11:04:30,15.08844904,0.000132,53.2169,200.6286,77.422,282.692,0.00099815,0.00015635,0.0,0 STARLINK-3831,1 52332U 22045B   23284.46146173  .00015635  00000-0  99815-3 0  9994,2 52332  53.2169 200.6286 0001320  77.4220 282.6920 15.08844904 82759,6917.865,95.437,540.644,538.817,0.0
52332.0,STARLINK-3831,PAYLOAD,2023-10-11 19:01:26,15.08838581,0.0001757,53.2186,199.1458,106.1157,254.0028,0.00057001,8.795e-05,0.0,0 STARLINK-3831,1 52332U 22045B   23284.79266460  .00008795  00000-0  57001-3 0  9992,2 52332  53.2186 199.1458 0001757 106.1157 254.0028 15.08838581 82806,6917.885,95.438,540.965,538.534,0.0
52332.0,STARLINK-3831,PAYLOAD,2023-10-12 04:33:44,15.08861966,0.0001431,53.2167,197.3592,94.3871,265.7285,0.0012998,0.00020471,0.0,0 STARLINK-3831,1 52332U 22045B   23285.19009983  .00020471  00000-0  12998-2 0  9992,2 52332  53.2167 197.3592 0001431  94.3871 265.7285 15.08861966 82867,6917.813,95.436,540.668,538.688,0.0
52332.0,STARLINK-3831,PAYLOAD,2023-10-12 10:55:17,15.08855576,0.0001445,53.2163,196.1652,69.8421,290.2727,0.00075171,0.00011701,0.0,0 STARLINK-3831,1 52332U 22045B   23285.45506150  .00011701  00000-0  75171-3 0  9998,2 52332  53.2163 196.1652 0001445  69.8421 290.2727 15.08855576 82909,6917.833,95.437,540.697,538.698,0.0
52332.0,STARLINK-3831,PAYLOAD,2023-10-12 22:02:59,15.08855495,0.0001255,53.2167,194.0868,87.3043,272.8092,0.00066831,0.00010369,0.0,0 STARLINK-3831,1 52332U 22045B   23285.91873861  .00010369  00000-0  66831-3 0  9997,2 52332  53.2167 194.0868 0001255  87.3043 272.8092 15.08855495 82971,6917.833,95.437,540.566,538.83,0.0
52332.0,STARLINK-3831,PAYLOAD,2023-10-13 10:46:03,15.08860714,0.0001573,53.2168,191.7077,85.1857,274.9315,0.00081105,0.00012651,0.0,0 STARLINK-3831,1 52332U 22045B   23286.44865415  .00012651  00000-0  81105-3 0  9999,2 52332  53.2168 191.7077 0001573  85.1857 274.9315 15.08860714 83051,6917.817,95.436,540.77,538.594,0.0
52332.0,STARLINK-3831,PAYLOAD,2023-10-13 21:53:45,15.08855872,0.0001264,53.216,189.628,91.2263,268.8874,0.0019209,0.00030429,0.0,0 STARLINK-3831,1 52332U 22045B   23286.91233444  .00030429  00000-0  19209-2 0  9990,2 52332  53.2160 189.6280 0001264  91.2263 268.8874 15.08855872 83120,6917.832,95.437,540.571,538.822,0.0
52332.0,STARLINK-3831,PAYLOAD,2023-10-14 02:39:54,15.0887032,0.0001156,53.2158,188.735,86.2899,273.8226,0.0028835,0.0004594,0.0,0 STARLINK-3831,1 52332U 22045B   23287.11105156  .00045940  00000-0  28835-2 0  9990,2 52332  53.2158 188.7350 0001156  86.2899 273.8226 15.08870320 83159,6917.788,95.436,540.452,538.853,0.0
52332.0,STARLINK-3831,PAYLOAD,2023-10-14 10:36:51,15.08846969,0.0001821,53.2157,187.2485,81.5878,278.532,0.0010412,0.00016325,0.0,0 STARLINK-3831,1 52332U 22045B   23287.44225762  .00016325  00000-0  10412-2 0  9999,2 52332  53.2157 187.2485 0001821  81.5878 278.5320 15.08846969 83200,6917.859,95.437,540.984,538.464,0.0
52332.0,STARLINK-3831,PAYLOAD,2023-10-14 21:44:33,15.08828389,0.0001719,53.2157,185.1669,94.1384,265.9804,0.0013607,0.00021427,0.0,0 STARLINK-3831,1 52332U 22045B   23287.90594465  .00021427  00000-0  13607-2 0  9997,2 52332  53.2157 185.1669 0001719  94.1384 265.9804 15.08828389 83279,6917.916,95.438,540.97,538.592,0.0
52332.0,STARLINK-3831,PAYLOAD,2023-10-15 00:55:19,15.08834261,0.000161,53.2156,184.5721,88.0747,272.043,0.0017312,0.00027367,0.0,0 STARLINK-3831,1 52332U 22045B   23288.03842566  .00027367  00000-0  17312-2 0  9996,2 52332  53.2156 184.5721 0001610  88.0747 272.0430 15.08834261 83297,6917.898,95.438,540.877,538.649,0.0
52332.0,STARLINK-3831,PAYLOAD,2023-10-15 10:27:39,15.08832965,0.0001783,53.2152,182.787,85.9499,274.1697,0.00097577,0.00015273,0.0,0 STARLINK-3831,1 52332U 22045B   23288.43587026  .00015273  00000-0  97577-3 0  9992,2 52332  53.2152 182.7870 0001783  85.9499 274.1697 15.08832965 83353,6917.902,95.438,541.0,538.533,0.0
52332.0,STARLINK-3831,PAYLOAD,2023-10-15 21:35:21,15.08842041,0.0001877,53.2153,180.7063,83.7409,276.3797,0.00077277,0.00012033,0.0,0 STARLINK-3831,1 52332U 22045B   23288.89955131  .00012033  00000-0  77277-3 0  9994,2 52332  53.2153 180.7063 0001877  83.7409 276.3797 15.08842041 83426,6917.874,95.437,541.038,538.441,0.0
52332.0,STARLINK-3831,PAYLOAD,2023-10-16 10:18:25,15.08855193,0.0001649,53.2143,178.3275,86.1777,273.9404,0.00083169,0.00012979,0.0,0 STARLINK-3831,1 52332U 22045B   23289.42946745  .00012979  00000-0  83169-3 0  9991,2 52332  53.2143 178.3275 0001649  86.1777 273.9404 15.08855193 83504,6917.834,95.437,540.84,538.558,0.0
52332.0,STARLINK-3831,PAYLOAD,2023-10-18 02:03:04,15.08840993,0.0001384,53.2137,170.8922,86.3672,273.7479,0.00054627,8.417e-05,0.0,0 STARLINK-3831,1 52332U 22045B   23291.08546343  .00008417  00000-0  54627-3 0  9995,2 52332  53.2137 170.8922 0001384  86.3672 273.7479 15.08840993 83754,6917.877,95.437,540.7,538.785,0.0
52332.0,STARLINK-3831,PAYLOAD,2023-10-18 22:43:04,15.0884868,0.0001469,53.2163,167.0253,88.8719,271.2442,0.00044515,6.805e-05,0.0,0 STARLINK-3831,1 52332U 22045B   23291.94658188  .00006805  00000-0  44515-3 0  9995,2 52332  53.2163 167.0253 0001469  88.8719 271.2442 15.08848680 83889,6917.854,95.437,540.735,538.703,0.0
52332.0,STARLINK-3831,PAYLOAD,2023-10-19 16:12:19,15.08812637,0.0002498,53.2165,163.7566,98.3304,261.7972,-0.00065522,-0.00010694,0.0,0 STARLINK-3831,1 52332U 22045B   23292.67523011 -.00010694  00000-0 -65522-3 0  9996,2 52332  53.2165 163.7566 0002498  98.3304 261.7972 15.08812637 83997,6917.964,95.439,541.557,538.101,0.0
52332.0,STARLINK-3831,PAYLOAD,2023-10-19 22:33:51,15.08857184,3.47e-05,53.2162,162.5684,70.8216,289.2814,0.00020049,2.906e-05,0.0,0 STARLINK-3831,1 52332U 22045B   23292.94017455  .00002906  00000-0  20049-3 0  9996,2 52332  53.2162 162.5684 0000347  70.8216 289.2814 15.08857184 84032,6917.828,95.436,539.933,539.453,0.0
52332.0,STARLINK-3831,PAYLOAD,2023-10-20 14:27:43,15.08832096,0.0001147,53.2149,159.594,81.803,278.3092,-8.8438e-05,-1.695e-05,0.0,0 STARLINK-3831,1 52332U 22045B   23293.60258583 -.00001695  00000-0 -88438-4 0  9992,2 52332  53.2149 159.5940 0001147  81.8030 278.3092 15.08832096 84136,6917.905,95.438,540.563,538.976,0.0
52332.0,STARLINK-3831,PAYLOAD,2023-10-20 17:38:29,15.08827802,0.0001671,53.2159,158.9986,88.4358,271.6826,-7.7369e-05,-1.519e-05,0.0,0 STARLINK-3831,1 52332U 22045B   23293.73506874 -.00001519  00000-0 -77369-4 0  9991,2 52332  53.2159 158.9986 0001671  88.4358 271.6826 15.08827802 84150,6917.918,95.438,540.939,538.627,0.0
52332.0,STARLINK-3831,PAYLOAD,2023-10-20 22:24:39,15.08829187,0.0001341,53.2153,158.1067,89.5836,270.531,-4.4689e-05,-9.99e-06,0.0,0 STARLINK-3831,1 52332U 22045B   23293.93379082 -.00000999  00000-0 -44689-4 0  9992,2 52332  53.2153 158.1067 0001341  89.5836 270.5310 15.08829187 84180,6917.913,95.438,540.706,538.851,0.0
